[{"OBJECT_NAME":"ONEWEB-0635","OBJECT_ID":"2023-043AG","EPOCH":"2026-03-22T01:24:14.578848","MEAN_MOTION":13.15548787,"ECCENTRICITY":0.00014809,"INCLINATION":87.8935,"RA_OF_ASC_NODE":276.5796,"ARG_OF_PERICENTER":99.0865,"MEAN_ANOMALY":261.0432,"EPHEMERIS_TYPE":0,"CLASSIFICATION_TYPE":"U","NORAD_CAT_ID":56076,"ELEMENT_SET_NO":999,"REV_AT_EPOCH":14497,"BSTAR":0.00029821922,"MEAN_MOTION_DOT":1.25e-6,"MEAN_MOTION_DDOT":0},{"OBJECT_NAME":"ONEWEB-0636","OBJECT_ID":"2023-043AH","EPOCH":"2026-03-22T01:12:49.989312","MEAN_MOTION":13.15549387,"ECCENTRICITY":0.00014873,"INCLINATION":87.8922,"RA_OF_ASC_NODE":276.5943,"ARG_OF_PERICENTER":97.3166,"MEAN_ANOMALY":262.8133,"EPHEMERIS_TYPE":0,"CLASSIFICATION_TYPE":"U","NORAD_CAT_ID":56077,"ELEMENT_SET_NO":999,"REV_AT_EPOCH":14495,"BSTAR":7.5859316e-5,"MEAN_MOTION_DOT":4.1e-7,"MEAN_MOTION_DDOT":0},{"OBJECT_NAME":"ONEWEB-0637","OBJECT_ID":"2023-043AJ","EPOCH":"2026-03-22T01:03:42.544224","MEAN_MOTION":13.15549434,"ECCENTRICITY":0.00013868,"INCLINATION":87.8926,"RA_OF_ASC_NODE":276.6134,"ARG_OF_PERICENTER":86.0802,"MEAN_ANOMALY":274.0487,"EPHEMERIS_TYPE":0,"CLASSIFICATION_TYPE":"U","NORAD_CAT_ID":56078,"ELEMENT_SET_NO":999,"REV_AT_EPOCH":14497,"BSTAR":-6.6582837e-5,"MEAN_MOTION_DOT":-1.2e-7,"MEAN_MOTION_DDOT":0},{"OBJECT_NAME":"ONEWEB-0647","OBJECT_ID":"2023-043AK","EPOCH":"2026-03-22T06:25:26.266368","MEAN_MOTION":13.15548546,"ECCENTRICITY":0.00016845,"INCLINATION":87.8926,"RA_OF_ASC_NODE":276.581,"ARG_OF_PERICENTER":97.2228,"MEAN_ANOMALY":262.9094,"EPHEMERIS_TYPE":0,"CLASSIFICATION_TYPE":"U","NORAD_CAT_ID":56079,"ELEMENT_SET_NO":999,"REV_AT_EPOCH":14499,"BSTAR":-0.00032723358,"MEAN_MOTION_DOT":-1.1e-6,"MEAN_MOTION_DDOT":0},{"OBJECT_NAME":"ONEWEB-0651","OBJECT_ID":"2023-043AL","EPOCH":"2026-03-22T06:18:35.347104","MEAN_MOTION":13.15548952,"ECCENTRICITY":0.00014131,"INCLINATION":87.8923,"RA_OF_ASC_NODE":276.5766,"ARG_OF_PERICENTER":93.5246,"MEAN_ANOMALY":266.6046,"EPHEMERIS_TYPE":0,"CLASSIFICATION_TYPE":"U","NORAD_CAT_ID":56080,"ELEMENT_SET_NO":999,"REV_AT_EPOCH":14619,"BSTAR":-7.5452937e-5,"MEAN_MOTION_DOT":-1.6e-7,"MEAN_MOTION_DDOT":0},{"OBJECT_NAME":"ONEWEB-0718","OBJECT_ID":"2023-043AM","EPOCH":"2026-03-22T06:11:44.461536","MEAN_MOTION":13.15549023,"ECCENTRICITY":0.00018861,"INCLINATION":87.8925,"RA_OF_ASC_NODE":276.558,"ARG_OF_PERICENTER":76.6322,"MEAN_ANOMALY":283.5018,"EPHEMERIS_TYPE":0,"CLASSIFICATION_TYPE":"U","NORAD_CAT_ID":56081,"ELEMENT_SET_NO":999,"REV_AT_EPOCH":14500,"BSTAR":-0.00041954891,"MEAN_MOTION_DOT":-1.45e-6,"MEAN_MOTION_DDOT":0},{"OBJECT_NAME":"ONEWEB-0561","OBJECT_ID":"2023-068A","EPOCH":"2026-03-22T01:51:33.363072","MEAN_MOTION":13.20770946,"ECCENTRICITY":0.00015652,"INCLINATION":87.9151,"RA_OF_ASC_NODE":291.8372,"ARG_OF_PERICENTER":102.848,"MEAN_ANOMALY":257.2829,"EPHEMERIS_TYPE":0,"CLASSIFICATION_TYPE":"U","NORAD_CAT_ID":56710,"ELEMENT_SET_NO":999,"REV_AT_EPOCH":13800,"BSTAR":0.00010558356,"MEAN_MOTION_DOT":5.6e-7,"MEAN_MOTION_DDOT":0},{"OBJECT_NAME":"ONEWEB-0668","OBJECT_ID":"2023-068B","EPOCH":"2026-03-22T04:25:32.441664","MEAN_MOTION":13.1659216,"ECCENTRICITY":0.00015514,"INCLINATION":87.9027,"RA_OF_ASC_NODE":246.0635,"ARG_OF_PERICENTER":79.6329,"MEAN_ANOMALY":280.4977,"EPHEMERIS_TYPE":0,"CLASSIFICATION_TYPE":"U","NORAD_CAT_ID":56711,"ELEMENT_SET_NO":999,"REV_AT_EPOCH":14033,"BSTAR":-0.0001854155,"MEAN_MOTION_DOT":-5.8e-7,"MEAN_MOTION_DDOT":0},{"OBJECT_NAME":"ONEWEB-0676","OBJECT_ID":"2023-068C","EPOCH":"2026-03-22T04:36:56.923200","MEAN_MOTION":13.16594298,"ECCENTRICITY":0.00015218,"INCLINATION":87.9015,"RA_OF_ASC_NODE":246.0731,"ARG_OF_PERICENTER":107.305,"MEAN_ANOMALY":252.8247,"EPHEMERIS_TYPE":0,"CLASSIFICATION_TYPE":"U","NORAD_CAT_ID":56712,"ELEMENT_SET_NO":999,"REV_AT_EPOCH":14025,"BSTAR":-0.00050030799,"MEAN_MOTION_DOT":-1.78e-6,"MEAN_MOTION_DDOT":0},{"OBJECT_NAME":"ONEWEB-0677","OBJECT_ID":"2023-068D","EPOCH":"2026-03-22T01:35:37.870656","MEAN_MOTION":13.20774648,"ECCENTRICITY":0.00014582,"INCLINATION":87.9153,"RA_OF_ASC_NODE":291.8319,"ARG_OF_PERICENTER":86.3399,"MEAN_ANOMALY":273.7901,"EPHEMERIS_TYPE":0,"CLASSIFICATION_TYPE":"U","NORAD_CAT_ID":56713,"ELEMENT_SET_NO":999,"REV_AT_EPOCH":13830,"BSTAR":0.00010783773,"MEAN_MOTION_DOT":5.7e-7,"MEAN_MOTION_DDOT":0},{"OBJECT_NAME":"ONEWEB-0678","OBJECT_ID":"2023-068E","EPOCH":"2026-03-22T05:26:06.909504","MEAN_MOTION":13.15548764,"ECCENTRICITY":0.00018906,"INCLINATION":87.8934,"RA_OF_ASC_NODE":276.5482,"ARG_OF_PERICENTER":99.2811,"MEAN_ANOMALY":260.8533,"EPHEMERIS_TYPE":0,"CLASSIFICATION_TYPE":"U","NORAD_CAT_ID":56714,"ELEMENT_SET_NO":999,"REV_AT_EPOCH":13785,"BSTAR":0.00014845955,"MEAN_MOTION_DOT":6.9e-7,"MEAN_MOTION_DDOT":0},{"OBJECT_NAME":"ONEWEB-0679","OBJECT_ID":"2023-068F","EPOCH":"2026-03-21T23:58:48.377856","MEAN_MOTION":13.16594793,"ECCENTRICITY":0.00011287,"INCLINATION":87.9029,"RA_OF_ASC_NODE":246.0988,"ARG_OF_PERICENTER":87.7735,"MEAN_ANOMALY":272.3525,"EPHEMERIS_TYPE":0,"CLASSIFICATION_TYPE":"U","NORAD_CAT_ID":56715,"ELEMENT_SET_NO":999,"REV_AT_EPOCH":14025,"BSTAR":-4.5362481e-5,"MEAN_MOTION_DOT":-4.0e-8,"MEAN_MOTION_DDOT":0},{"OBJECT_NAME":"ONEWEB-0680","OBJECT_ID":"2023-068G","EPOCH":"2026-03-22T04:43:58.734912","MEAN_MOTION":13.218278,"ECCENTRICITY":0.000144,"INCLINATION":87.9176,"RA_OF_ASC_NODE":261.3042,"ARG_OF_PERICENTER":76.212,"MEAN_ANOMALY":283.9175,"EPHEMERIS_TYPE":0,"CLASSIFICATION_TYPE":"U","NORAD_CAT_ID":56716,"ELEMENT_SET_NO":999,"REV_AT_EPOCH":13960,"BSTAR":-3.7710363e-5,"MEAN_MOTION_DOT":-3.0e-8,"MEAN_MOTION_DDOT":0},{"OBJECT_NAME":"ONEWEB-0681","OBJECT_ID":"2023-068H","EPOCH":"2026-03-22T06:03:21.883104","MEAN_MOTION":13.21827324,"ECCENTRICITY":0.00012672,"INCLINATION":87.9166,"RA_OF_ASC_NODE":261.3002,"ARG_OF_PERICENTER":131.253,"MEAN_ANOMALY":228.8713,"EPHEMERIS_TYPE":0,"CLASSIFICATION_TYPE":"U","NORAD_CAT_ID":56717,"ELEMENT_SET_NO":999,"REV_AT_EPOCH":13960,"BSTAR":-0.00026738191,"MEAN_MOTION_DOT":-9.7e-7,"MEAN_MOTION_DDOT":0},{"OBJECT_NAME":"ONEWEB-0682","OBJECT_ID":"2023-068J","EPOCH":"2026-03-22T06:00:26.487648","MEAN_MOTION":13.15627155,"ECCENTRICITY":0.000134,"INCLINATION":87.8979,"RA_OF_ASC_NODE":276.5469,"ARG_OF_PERICENTER":67.0186,"MEAN_ANOMALY":293.1086,"EPHEMERIS_TYPE":0,"CLASSIFICATION_TYPE":"U","NORAD_CAT_ID":56718,"ELEMENT_SET_NO":999,"REV_AT_EPOCH":13802,"BSTAR":-0.027992328,"MEAN_MOTION_DOT":-0.00010525,"MEAN_MOTION_DDOT":0},{"OBJECT_NAME":"ONEWEB-0683","OBJECT_ID":"2023-068K","EPOCH":"2026-03-22T06:34:33.974112","MEAN_MOTION":13.15548769,"ECCENTRICITY":0.000164,"INCLINATION":87.8937,"RA_OF_ASC_NODE":276.538,"ARG_OF_PERICENTER":82.3793,"MEAN_ANOMALY":277.7524,"EPHEMERIS_TYPE":0,"CLASSIFICATION_TYPE":"U","NORAD_CAT_ID":56719,"ELEMENT_SET_NO":999,"REV_AT_EPOCH":13799,"BSTAR":-0.00016542661,"MEAN_MOTION_DOT":-4.9e-7,"MEAN_MOTION_DDOT":0}]
