ONEWEB-0635             
1 56076U 23043AG  26081.05850207  .00000125  00000+0  29822-3 0  9993
2 56076  87.8935 276.5796 0001480  99.0865 261.0432 13.15548787144970
ONEWEB-0636             
1 56077U 23043AH  26081.05057858  .00000041  00000+0  75859-4 0  9994
2 56077  87.8922 276.5943 0001487  97.3166 262.8133 13.15549387144955
ONEWEB-0637             
1 56078U 23043AJ  26081.04424241 -.00000012  00000+0 -66583-4 0  9992
2 56078  87.8926 276.6134 0001386  86.0802 274.0487 13.15549434144975
ONEWEB-0647             
1 56079U 23043AK  26081.26766512 -.00000110  00000+0 -32723-3 0  9994
2 56079  87.8926 276.5810 0001684  97.2228 262.9094 13.15548546144998
ONEWEB-0651             
1 56080U 23043AL  26081.26290911 -.00000016  00000+0 -75453-4 0  9994
2 56080  87.8923 276.5766 0001413  93.5246 266.6046 13.15548952146199
ONEWEB-0718             
1 56081U 23043AM  26081.25815349 -.00000145  00000+0 -41955-3 0  9994
2 56081  87.8925 276.5580 0001886  76.6322 283.5018 13.15549023145003
ONEWEB-0561             
1 56710U 23068A   26081.07746948  .00000056  00000+0  10558-3 0  9992
2 56710  87.9151 291.8372 0001565 102.8480 257.2829 13.20770946138000
ONEWEB-0668             
1 56711U 23068B   26081.18440326 -.00000058  00000+0 -18542-3 0  9991
2 56711  87.9027 246.0635 0001551  79.6329 280.4977 13.16592160140331
ONEWEB-0676             
1 56712U 23068C   26081.19232550 -.00000178  00000+0 -50031-3 0  9993
2 56712  87.9015 246.0731 0001521 107.3050 252.8247 13.16594298140251
ONEWEB-0677             
1 56713U 23068D   26081.06641054  .00000057  00000+0  10784-3 0  9998
2 56713  87.9153 291.8319 0001458  86.3399 273.7901 13.20774648138302
ONEWEB-0678             
1 56714U 23068E   26081.22646886  .00000069  00000+0  14846-3 0  9991
2 56714  87.8934 276.5482 0001890  99.2811 260.8533 13.15548764137851
ONEWEB-0679             
1 56715U 23068F   26080.99917104 -.00000004  00000+0 -45362-4 0  9998
2 56715  87.9029 246.0988 0001128  87.7735 272.3525 13.16594793140253
ONEWEB-0680             
1 56716U 23068G   26081.19720758 -.00000003  00000+0 -37710-4 0  9996
2 56716  87.9176 261.3042 0001440  76.2120 283.9175 13.21827800139606
ONEWEB-0681             
1 56717U 23068H   26081.25233661 -.00000097  00000+0 -26738-3 0  9996
2 56717  87.9166 261.3002 0001267 131.2530 228.8713 13.21827324139603
ONEWEB-0682             
1 56718U 23068J   26081.25030657 -.00010525  00000+0 -27992-1 0  9995
2 56718  87.8979 276.5469 0001340  67.0186 293.1086 13.15627155138021
ONEWEB-0683             
1 56719U 23068K   26081.27400433 -.00000049  00000+0 -16543-3 0  9993
2 56719  87.8937 276.5380 0001640  82.3793 277.7524 13.15548769137998
